start=new Date('2023-04-27T00:00:00.000Z').valueOf();
sats=[{"GP_ID":"230802874","RCS_SIZE":"LARGE","MEAN_MOTION_DDOT":"0.0000000000000","BSTAR":"-0.05539800000000","INCLINATION":"70.0024","TLE_LINE2":"2 55744  70.0024   6.6487 0003340 271.3669 112.2167 15.13218491  1304","RA_OF_ASC_NODE":"6.6487","REV_AT_EPOCH":"130","NORAD_CAT_ID":"55744","FILE":"3894261","OBJECT_TYPE":"PAYLOAD","APOAPSIS":"528.700","ECCENTRICITY":"0.00033400","EPHEMERIS_TYPE":"0","OBJECT_NAME":"STARLINK-5601","TLE_LINE1":"1 55744U 23028D   23116.91667824 -.00913412  00000-0 -55398-1 0  9999","MEAN_ELEMENT_THEORY":"SGP4","ELEMENT_SET_NO":"999","CLASSIFICATION_TYPE":"U","ARG_OF_PERICENTER":"271.3669","DECAY_DATE":null,"SEMIMAJOR_AXIS":"6904.529","LAUNCH_DATE":"2023-03-03","SITE":"AFWTR","PERIAPSIS":"524.088","TIME_SYSTEM":"UTC","MEAN_ANOMALY":"112.2167","MEAN_MOTION":"15.13218491","EPOCH":"2023-04-26T22:00:00.999936","OBJECT_ID":"2023-028D","COUNTRY_CODE":"US","PERIOD":"95.161","CENTER_NAME":"EARTH","MEAN_MOTION_DOT":"-0.00913412","REF_FRAME":"TEME"},{"INCLINATION":"70.0018","TLE_LINE2":"2 55745  70.0018   6.7076 0003249 272.0683  59.1135 15.12527958  1309","RA_OF_ASC_NODE":"6.7076","GP_ID":"230801622","RCS_SIZE":"LARGE","MEAN_MOTION_DDOT":"0.0000000000000","BSTAR":"-0.05633300000000","FILE":"3894261","OBJECT_TYPE":"PAYLOAD","APOAPSIS":"530.740","ECCENTRICITY":"0.00032490","EPHEMERIS_TYPE":"0","OBJECT_NAME":"STARLINK-5565","TLE_LINE1":"1 55745U 23028E   23116.91667824 -.00911162  00000-0 -56333-1 0  9990","REV_AT_EPOCH":"130","NORAD_CAT_ID":"55745","LAUNCH_DATE":"2023-03-03","SITE":"AFWTR","PERIAPSIS":"526.252","TIME_SYSTEM":"UTC","MEAN_ELEMENT_THEORY":"SGP4","ELEMENT_SET_NO":"999","CLASSIFICATION_TYPE":"U","ARG_OF_PERICENTER":"272.0683","DECAY_DATE":null,"SEMIMAJOR_AXIS":"6906.631","COUNTRY_CODE":"US","PERIOD":"95.205","CENTER_NAME":"EARTH","MEAN_MOTION_DOT":"-0.00911162","REF_FRAME":"TEME","MEAN_ANOMALY":"59.1135","MEAN_MOTION":"15.12527958","EPOCH":"2023-04-26T22:00:00.999936","OBJECT_ID":"2023-028E"},{"PERIOD":"95.074","COUNTRY_CODE":"US","CENTER_NAME":"EARTH","MEAN_MOTION_DOT":"-0.00926201","REF_FRAME":"TEME","MEAN_ANOMALY":"215.6829","MEAN_MOTION":"15.14613580","EPOCH":"2023-04-26T22:00:00.999936","OBJECT_ID":"2023-028F","LAUNCH_DATE":"2023-03-03","SITE":"AFWTR","PERIAPSIS":"519.880","TIME_SYSTEM":"UTC","MEAN_ELEMENT_THEORY":"SGP4","ELEMENT_SET_NO":"999","CLASSIFICATION_TYPE":"U","DECAY_DATE":null,"ARG_OF_PERICENTER":"272.1386","SEMIMAJOR_AXIS":"6900.289","FILE":"3894261","OBJECT_TYPE":"PAYLOAD","APOAPSIS":"524.428","ECCENTRICITY":"0.00032950","EPHEMERIS_TYPE":"0","OBJECT_NAME":"STARLINK-5579","TLE_LINE1":"1 55746U 23028F   23116.91667824 -.00926201  00000-0 -54064-1 0  9990","REV_AT_EPOCH":"130","NORAD_CAT_ID":"55746","INCLINATION":"70.0028","TLE_LINE2":"2 55746  70.0028   6.5299 0003295 272.1386 215.6829 15.14613580  1306","RA_OF_ASC_NODE":"6.5299","GP_ID":"230801872","RCS_SIZE":"LARGE","MEAN_MOTION_DDOT":"0.0000000000000","BSTAR":"-0.05406400000000"},{"MEAN_MOTION":"15.13775252","MEAN_ANOMALY":"153.0874","EPOCH":"2023-04-26T22:00:00.999936","OBJECT_ID":"2023-028G","COUNTRY_CODE":"US","PERIOD":"95.126","CENTER_NAME":"EARTH","REF_FRAME":"TEME","MEAN_MOTION_DOT":"-0.00920467","MEAN_ELEMENT_THEORY":"SGP4","ELEMENT_SET_NO":"999","CLASSIFICATION_TYPE":"U","SEMIMAJOR_AXIS":"6902.836","ARG_OF_PERICENTER":"272.6962","DECAY_DATE":null,"LAUNCH_DATE":"2023-03-03","PERIAPSIS":"522.372","SITE":"AFWTR","TIME_SYSTEM":"UTC","NORAD_CAT_ID":"55747","REV_AT_EPOCH":"130","FILE":"3894261","OBJECT_TYPE":"PAYLOAD","EPHEMERIS_TYPE":"0","ECCENTRICITY":"0.00033750","APOAPSIS":"527.031","OBJECT_NAME":"STARLINK-5539","TLE_LINE1":"1 55747U 23028G   23116.91667824 -.00920467  00000-0 -54990-1 0  9997","RCS_SIZE":"LARGE","GP_ID":"230803123","MEAN_MOTION_DDOT":"0.0000000000000","BSTAR":"-0.05499000000000","TLE_LINE2":"2 55747  70.0025   6.5999 0003375 272.6962 153.0874 15.13775252  1304","INCLINATION":"70.0025","RA_OF_ASC_NODE":"6.5999"},{"MEAN_MOTION_DOT":"-0.00922553","REF_FRAME":"TEME","COUNTRY_CODE":"US","PERIOD":"95.108","CENTER_NAME":"EARTH","OBJECT_ID":"2023-028H","MEAN_ANOMALY":"174.9186","MEAN_MOTION":"15.14069481","EPOCH":"2023-04-26T22:00:00.999936","TIME_SYSTEM":"UTC","LAUNCH_DATE":"2023-03-03","SITE":"AFWTR","PERIAPSIS":"521.509","CLASSIFICATION_TYPE":"U","DECAY_DATE":null,"ARG_OF_PERICENTER":"272.2799","SEMIMAJOR_AXIS":"6901.942","MEAN_ELEMENT_THEORY":"SGP4","ELEMENT_SET_NO":"999","OBJECT_NAME":"STARLINK-5580","TLE_LINE1":"1 55748U 23028H   23116.91667824 -.00922553  00000-0 -54669-1 0  9999","FILE":"3894261","OBJECT_TYPE":"PAYLOAD","ECCENTRICITY":"0.00033290","APOAPSIS":"526.105","EPHEMERIS_TYPE":"0","REV_AT_EPOCH":"130","NORAD_CAT_ID":"55748","INCLINATION":"70.0026","TLE_LINE2":"2 55748  70.0026   6.5755 0003329 272.2799 174.9186 15.14069481  1308","RA_OF_ASC_NODE":"6.5755","BSTAR":"-0.05466900000000","GP_ID":"230803374","RCS_SIZE":"LARGE","MEAN_MOTION_DDOT":"0.0000000000000"},{"ELEMENT_SET_NO":"999","MEAN_ELEMENT_THEORY":"SGP4","DECAY_DATE":null,"ARG_OF_PERICENTER":"270.9160","SEMIMAJOR_AXIS":"6899.785","CLASSIFICATION_TYPE":"U","SITE":"AFWTR","PERIAPSIS":"519.572","LAUNCH_DATE":"2023-03-03","TIME_SYSTEM":"UTC","EPOCH":"2023-04-26T22:00:00.999936","MEAN_ANOMALY":"229.6892","MEAN_MOTION":"15.14779634","OBJECT_ID":"2023-028J","CENTER_NAME":"EARTH","PERIOD":"95.063","COUNTRY_CODE":"US","MEAN_MOTION_DOT":"-0.00915317","REF_FRAME":"TEME","MEAN_MOTION_DDOT":"0.0000000000000","GP_ID":"230802122","RCS_SIZE":"LARGE","BSTAR":"-0.05313200000000","RA_OF_ASC_NODE":"6.5142","INCLINATION":"70.0025","TLE_LINE2":"2 55749  70.0025   6.5142 0003011 270.9160 229.6892 15.14779634  1303","REV_AT_EPOCH":"130","NORAD_CAT_ID":"55749","APOAPSIS":"523.727","ECCENTRICITY":"0.00030110","EPHEMERIS_TYPE":"0","FILE":"3894261","OBJECT_TYPE":"PAYLOAD","TLE_LINE1":"1 55749U 23028J   23116.91667824 -.00915317  00000-0 -53132-1 0  9994","OBJECT_NAME":"STARLINK-5560"},{"NORAD_CAT_ID":"55750","REV_AT_EPOCH":"130","OBJECT_NAME":"STARLINK-5573","TLE_LINE1":"1 55750U 23028K   23116.91667824 -.00924984  00000-0 -54528-1 0  9996","OBJECT_TYPE":"PAYLOAD","FILE":"3894261","EPHEMERIS_TYPE":"0","APOAPSIS":"525.530","ECCENTRICITY":"0.00033400","BSTAR":"-0.05452800000000","RCS_SIZE":"LARGE","GP_ID":"230802372","MEAN_MOTION_DDOT":"0.0000000000000","TLE_LINE2":"2 55750  70.0027   6.5595 0003340 272.6475 188.7985 15.14261175  1306","INCLINATION":"70.0027","RA_OF_ASC_NODE":"6.5595","OBJECT_ID":"2023-028K","MEAN_MOTION":"15.14261175","MEAN_ANOMALY":"188.7985","EPOCH":"2023-04-26T22:00:00.999936","REF_FRAME":"TEME","MEAN_MOTION_DOT":"-0.00924984","PERIOD":"95.096","COUNTRY_CODE":"US","CENTER_NAME":"EARTH","CLASSIFICATION_TYPE":"U","SEMIMAJOR_AXIS":"6901.359","DECAY_DATE":null,"ARG_OF_PERICENTER":"272.6475","MEAN_ELEMENT_THEORY":"SGP4","ELEMENT_SET_NO":"999","TIME_SYSTEM":"UTC","LAUNCH_DATE":"2023-03-03","PERIAPSIS":"520.919","SITE":"AFWTR"},{"REV_AT_EPOCH":"130","NORAD_CAT_ID":"55751","TLE_LINE1":"1 55751U 23028L   23116.91667824 -.00917209  00000-0 -55121-1 0  9999","OBJECT_NAME":"STARLINK-5577","ECCENTRICITY":"0.00033080","APOAPSIS":"527.652","EPHEMERIS_TYPE":"0","OBJECT_TYPE":"PAYLOAD","FILE":"3894261","BSTAR":"-0.05512100000000","MEAN_MOTION_DDOT":"0.0000000000000","GP_ID":"230802624","RCS_SIZE":"LARGE","RA_OF_ASC_NODE":"6.6186","INCLINATION":"70.0024","TLE_LINE2":"2 55751  70.0024   6.6186 0003308 270.4812 139.0047 15.13555701  1304","OBJECT_ID":"2023-028L","EPOCH":"2023-04-26T22:00:00.999936","MEAN_ANOMALY":"139.0047","MEAN_MOTION":"15.13555701","MEAN_MOTION_DOT":"-0.00917209","REF_FRAME":"TEME","CENTER_NAME":"EARTH","COUNTRY_CODE":"US","PERIOD":"95.140","ARG_OF_PERICENTER":"270.4812","DECAY_DATE":null,"SEMIMAJOR_AXIS":"6903.504","CLASSIFICATION_TYPE":"U","ELEMENT_SET_NO":"999","MEAN_ELEMENT_THEORY":"SGP4","TIME_SYSTEM":"UTC","SITE":"AFWTR","PERIAPSIS":"523.085","LAUNCH_DATE":"2023-03-03"},{"ELEMENT_SET_NO":"999","MEAN_ELEMENT_THEORY":"SGP4","DECAY_DATE":null,"ARG_OF_PERICENTER":"270.3303","SEMIMAJOR_AXIS":"6897.771","CLASSIFICATION_TYPE":"U","SITE":"AFWTR","PERIAPSIS":"517.534","LAUNCH_DATE":"2023-03-03","TIME_SYSTEM":"UTC","EPOCH":"2023-04-26T22:00:00.999936","MEAN_ANOMALY":"279.5304","MEAN_MOTION":"15.15442941","OBJECT_ID":"2023-028M","CENTER_NAME":"EARTH","COUNTRY_CODE":"US","PERIOD":"95.022","MEAN_MOTION_DOT":"-0.00913102","REF_FRAME":"TEME","MEAN_MOTION_DDOT":"0.0000000000000","GP_ID":"230802875","RCS_SIZE":"LARGE","BSTAR":"-0.05200400000000","RA_OF_ASC_NODE":"6.4592","INCLINATION":"70.0025","TLE_LINE2":"2 55752  70.0025   6.4592 0003048 270.3303 279.5304 15.15442941  1309","REV_AT_EPOCH":"130","NORAD_CAT_ID":"55752","APOAPSIS":"521.739","ECCENTRICITY":"0.00030480","EPHEMERIS_TYPE":"0","FILE":"3894261","OBJECT_TYPE":"PAYLOAD","TLE_LINE1":"1 55752U 23028M   23116.91667824 -.00913102  00000-0 -52004-1 0  9995","OBJECT_NAME":"STARLINK-5613"},{"NORAD_CAT_ID":"55753","REV_AT_EPOCH":"130","OBJECT_TYPE":"PAYLOAD","FILE":"3894261","EPHEMERIS_TYPE":"0","APOAPSIS":"525.377","ECCENTRICITY":"0.00033160","OBJECT_NAME":"STARLINK-5617","TLE_LINE1":"1 55753U 23028N   23116.91667824 -.00924917  00000-0 -54455-1 0  9994","RCS_SIZE":"LARGE","GP_ID":"230801623","MEAN_MOTION_DDOT":"0.0000000000000","BSTAR":"-0.05445500000000","TLE_LINE2":"2 55753  70.0025   6.5539 0003316 273.4907 192.2871 15.14306003  1301","INCLINATION":"70.0025","RA_OF_ASC_NODE":"6.5539","MEAN_MOTION":"15.14306003","MEAN_ANOMALY":"192.2871","EPOCH":"2023-04-26T22:00:00.999936","OBJECT_ID":"2023-028N","COUNTRY_CODE":"US","PERIOD":"95.093","CENTER_NAME":"EARTH","REF_FRAME":"TEME","MEAN_MOTION_DOT":"-0.00924917","MEAN_ELEMENT_THEORY":"SGP4","ELEMENT_SET_NO":"999","CLASSIFICATION_TYPE":"U","SEMIMAJOR_AXIS":"6901.223","ARG_OF_PERICENTER":"273.4907","DECAY_DATE":null,"LAUNCH_DATE":"2023-03-03","PERIAPSIS":"520.800","SITE":"AFWTR","TIME_SYSTEM":"UTC"}];
